[{"CCSDS_OMM_VERS":"2.0","COMMENT":"GENERATED VIA SPACE-TRACK.ORG API","CREATION_DATE":"2021-04-22T14:46:11","ORIGINATOR":"18 SPCS","OBJECT_NAME":"ONEWEB-0135","OBJECT_ID":"2020-100Z","CENTER_NAME":"EARTH","REF_FRAME":"TEME","TIME_SYSTEM":"UTC","MEAN_ELEMENT_THEORY":"SGP4","EPOCH":"2021-04-22T14:00:01.000224","MEAN_MOTION":"13.15045459","ECCENTRICITY":"0.00016410","INCLINATION":"87.9001","RA_OF_ASC_NODE":"4.7485","ARG_OF_PERICENTER":"87.0902","MEAN_ANOMALY":"6.8460","EPHEMERIS_TYPE":"0","CLASSIFICATION_TYPE":"U","NORAD_CAT_ID":"47281","ELEMENT_SET_NO":"999","REV_AT_EPOCH":"1793","BSTAR":"0.00000000000000","MEAN_MOTION_DOT":"0.00000013","MEAN_MOTION_DDOT":"0.0000000000000","SEMIMAJOR_AXIS":"7581.841","PERIOD":"109.502","APOAPSIS":"1204.950","PERIAPSIS":"1202.462","OBJECT_TYPE":"PAYLOAD","RCS_SIZE":"LARGE","COUNTRY_CODE":"UK","LAUNCH_DATE":"2020-12-18","SITE":"VOSTO","DECAY_DATE":null,"FILE":"3022994","GP_ID":"175921311","TLE_LINE0":"0 ONEWEB-0135","TLE_LINE1":"1 47281U 20100Z   21112.58334491  .00000013  00000-0  00000+0 0  9992","TLE_LINE2":"2 47281  87.9001   4.7485 0001641  87.0902   6.8460 13.15045459 17936"},{"CCSDS_OMM_VERS":"2.0","COMMENT":"GENERATED VIA SPACE-TRACK.ORG API","CREATION_DATE":"2021-04-22T23:06:11","ORIGINATOR":"18 SPCS","OBJECT_NAME":"ONEWEB-0135","OBJECT_ID":"2020-100Z","CENTER_NAME":"EARTH","REF_FRAME":"TEME","TIME_SYSTEM":"UTC","MEAN_ELEMENT_THEORY":"SGP4","EPOCH":"2021-04-22T22:00:00.999936","MEAN_MOTION":"13.14162563","ECCENTRICITY":"0.00016670","INCLINATION":"87.8968","RA_OF_ASC_NODE":"4.6814","ARG_OF_PERICENTER":"90.6292","MEAN_ANOMALY":"139.9506","EPHEMERIS_TYPE":"0","CLASSIFICATION_TYPE":"U","NORAD_CAT_ID":"47281","ELEMENT_SET_NO":"999","REV_AT_EPOCH":"1797","BSTAR":"0.00000000000000","MEAN_MOTION_DOT":"0.00000013","MEAN_MOTION_DDOT":"0.0000000000000","SEMIMAJOR_AXIS":"7585.236","PERIOD":"109.575","APOAPSIS":"1208.366","PERIAPSIS":"1205.837","OBJECT_TYPE":"PAYLOAD","RCS_SIZE":"LARGE","COUNTRY_CODE":"UK","LAUNCH_DATE":"2020-12-18","SITE":"VOSTO","DECAY_DATE":null,"FILE":"3023235","GP_ID":"175950103","TLE_LINE0":"0 ONEWEB-0135","TLE_LINE1":"1 47281U 20100Z   21112.91667824  .00000013  00000-0  00000+0 0  9998","TLE_LINE2":"2 47281  87.8968   4.6814 0001667  90.6292 139.9506 13.14162563 17970"},{"CCSDS_OMM_VERS":"2.0","COMMENT":"GENERATED VIA SPACE-TRACK.ORG API","CREATION_DATE":"2021-04-23T03:05:05","ORIGINATOR":"18 SPCS","OBJECT_NAME":"ONEWEB-0135","OBJECT_ID":"2020-100Z","CENTER_NAME":"EARTH","REF_FRAME":"TEME","TIME_SYSTEM":"UTC","MEAN_ELEMENT_THEORY":"SGP4","EPOCH":"2021-04-22T22:00:00.999936","MEAN_MOTION":"13.14162563","ECCENTRICITY":"0.00016670","INCLINATION":"87.8968","RA_OF_ASC_NODE":"4.6814","ARG_OF_PERICENTER":"90.6292","MEAN_ANOMALY":"139.9506","EPHEMERIS_TYPE":"0","CLASSIFICATION_TYPE":"U","NORAD_CAT_ID":"47281","ELEMENT_SET_NO":"999","REV_AT_EPOCH":"177","BSTAR":"0.00000000000000","MEAN_MOTION_DOT":"0.00000013","MEAN_MOTION_DDOT":"0.0000000000000","SEMIMAJOR_AXIS":"7585.236","PERIOD":"109.575","APOAPSIS":"1208.366","PERIAPSIS":"1205.837","OBJECT_TYPE":"PAYLOAD","RCS_SIZE":"LARGE","COUNTRY_CODE":"UK","LAUNCH_DATE":"2020-12-18","SITE":"VOSTO","DECAY_DATE":null,"FILE":"3023398","GP_ID":"175974253","TLE_LINE0":"0 ONEWEB-0135","TLE_LINE1":"1 47281U 20100Z   21112.91667824  .00000013  00000-0  00000-0 0  9999","TLE_LINE2":"2 47281  87.8968   4.6814 0001667  90.6292 139.9506 13.14162563  1771"},{"CCSDS_OMM_VERS":"2.0","COMMENT":"GENERATED VIA SPACE-TRACK.ORG API","CREATION_DATE":"2021-04-23T17:58:58","ORIGINATOR":"18 SPCS","OBJECT_NAME":"ONEWEB-0135","OBJECT_ID":"2020-100Z","CENTER_NAME":"EARTH","REF_FRAME":"TEME","TIME_SYSTEM":"UTC","MEAN_ELEMENT_THEORY":"SGP4","EPOCH":"2021-04-23T06:00:00.999648","MEAN_MOTION":"13.13073735","ECCENTRICITY":"0.00017560","INCLINATION":"87.8965","RA_OF_ASC_NODE":"4.6152","ARG_OF_PERICENTER":"91.0234","MEAN_ANOMALY":"275.1298","EPHEMERIS_TYPE":"0","CLASSIFICATION_TYPE":"U","NORAD_CAT_ID":"47281","ELEMENT_SET_NO":"999","REV_AT_EPOCH":"173","BSTAR":"-0.08336800000000","MEAN_MOTION_DOT":"-0.00030157","MEAN_MOTION_DDOT":"0.0000000000000","SEMIMAJOR_AXIS":"7589.429","PERIOD":"109.666","APOAPSIS":"1212.627","PERIAPSIS":"1209.961","OBJECT_TYPE":"PAYLOAD","RCS_SIZE":"LARGE","COUNTRY_CODE":"UK","LAUNCH_DATE":"2020-12-18","SITE":"VOSTO","DECAY_DATE":null,"FILE":"3023644","GP_ID":"176001818","TLE_LINE0":"0 ONEWEB-0135","TLE_LINE1":"1 47281U 20100Z   21113.25001157 -.00030157  00000-0 -83368-1 0  9991","TLE_LINE2":"2 47281  87.8965   4.6152 0001756  91.0234 275.1298 13.13073735  1731"},{"CCSDS_OMM_VERS":"2.0","COMMENT":"GENERATED VIA SPACE-TRACK.ORG API","CREATION_DATE":"2021-04-23T06:36:20","ORIGINATOR":"18 SPCS","OBJECT_NAME":"ONEWEB-0135","OBJECT_ID":"2020-100Z","CENTER_NAME":"EARTH","REF_FRAME":"TEME","TIME_SYSTEM":"UTC","MEAN_ELEMENT_THEORY":"SGP4","EPOCH":"2021-04-23T06:00:00.999648","MEAN_MOTION":"13.13073735","ECCENTRICITY":"0.00017560","INCLINATION":"87.8965","RA_OF_ASC_NODE":"4.6152","ARG_OF_PERICENTER":"91.0234","MEAN_ANOMALY":"275.1298","EPHEMERIS_TYPE":"0","CLASSIFICATION_TYPE":"U","NORAD_CAT_ID":"47281","ELEMENT_SET_NO":"999","REV_AT_EPOCH":"1801","BSTAR":"-0.08336800000000","MEAN_MOTION_DOT":"-0.00030157","MEAN_MOTION_DDOT":"0.0000000000000","SEMIMAJOR_AXIS":"7589.429","PERIOD":"109.666","APOAPSIS":"1212.627","PERIAPSIS":"1209.961","OBJECT_TYPE":"PAYLOAD","RCS_SIZE":"LARGE","COUNTRY_CODE":"UK","LAUNCH_DATE":"2020-12-18","SITE":"VOSTO","DECAY_DATE":null,"FILE":"3023464","GP_ID":"175976892","TLE_LINE0":"0 ONEWEB-0135","TLE_LINE1":"1 47281U 20100Z   21113.25001157 -.00030157  00000-0 -83368-1 0  9991","TLE_LINE2":"2 47281  87.8965   4.6152 0001756  91.0234 275.1298 13.13073735 18010"},{"CCSDS_OMM_VERS":"2.0","COMMENT":"GENERATED VIA SPACE-TRACK.ORG API","CREATION_DATE":"2021-04-24T02:46:36","ORIGINATOR":"18 SPCS","OBJECT_NAME":"ONEWEB-0135","OBJECT_ID":"2020-100Z","CENTER_NAME":"EARTH","REF_FRAME":"TEME","TIME_SYSTEM":"UTC","MEAN_ELEMENT_THEORY":"SGP4","EPOCH":"2021-04-23T22:00:00.999936","MEAN_MOTION":"13.13060827","ECCENTRICITY":"0.00016950","INCLINATION":"87.8964","RA_OF_ASC_NODE":"4.4826","ARG_OF_PERICENTER":"91.4118","MEAN_ANOMALY":"184.2877","EPHEMERIS_TYPE":"0","CLASSIFICATION_TYPE":"U","NORAD_CAT_ID":"47281","ELEMENT_SET_NO":"999","REV_AT_EPOCH":"171","BSTAR":"-0.05688200000000","MEAN_MOTION_DOT":"-0.00020590","MEAN_MOTION_DDOT":"0.0000000000000","SEMIMAJOR_AXIS":"7589.479","PERIOD":"109.667","APOAPSIS":"1212.630","PERIAPSIS":"1210.057","OBJECT_TYPE":"PAYLOAD","RCS_SIZE":"LARGE","COUNTRY_CODE":"UK","LAUNCH_DATE":"2020-12-18","SITE":"VOSTO","DECAY_DATE":null,"FILE":"3023973","GP_ID":"176032014","TLE_LINE0":"0 ONEWEB-0135","TLE_LINE1":"1 47281U 20100Z   21113.91667824 -.00020590  00000-0 -56882-1 0  9994","TLE_LINE2":"2 47281  87.8964   4.4826 0001695  91.4118 184.2877 13.13060827  1712"},{"CCSDS_OMM_VERS":"2.0","COMMENT":"GENERATED VIA SPACE-TRACK.ORG API","CREATION_DATE":"2021-04-23T22:46:12","ORIGINATOR":"18 SPCS","OBJECT_NAME":"ONEWEB-0135","OBJECT_ID":"2020-100Z","CENTER_NAME":"EARTH","REF_FRAME":"TEME","TIME_SYSTEM":"UTC","MEAN_ELEMENT_THEORY":"SGP4","EPOCH":"2021-04-23T22:00:00.999936","MEAN_MOTION":"13.13060827","ECCENTRICITY":"0.00016950","INCLINATION":"87.8964","RA_OF_ASC_NODE":"4.4826","ARG_OF_PERICENTER":"91.4118","MEAN_ANOMALY":"184.2877","EPHEMERIS_TYPE":"0","CLASSIFICATION_TYPE":"U","NORAD_CAT_ID":"47281","ELEMENT_SET_NO":"999","REV_AT_EPOCH":"1810","BSTAR":"-0.05688200000000","MEAN_MOTION_DOT":"-0.00020590","MEAN_MOTION_DDOT":"0.0000000000000","SEMIMAJOR_AXIS":"7589.479","PERIOD":"109.667","APOAPSIS":"1212.630","PERIAPSIS":"1210.057","OBJECT_TYPE":"PAYLOAD","RCS_SIZE":"LARGE","COUNTRY_CODE":"UK","LAUNCH_DATE":"2020-12-18","SITE":"VOSTO","DECAY_DATE":null,"FILE":"3023739","GP_ID":"176005829","TLE_LINE0":"0 ONEWEB-0135","TLE_LINE1":"1 47281U 20100Z   21113.91667824 -.00020590  00000-0 -56882-1 0  9994","TLE_LINE2":"2 47281  87.8964   4.4826 0001695  91.4118 184.2877 13.13060827 18103"},{"CCSDS_OMM_VERS":"2.0","COMMENT":"GENERATED VIA SPACE-TRACK.ORG API","CREATION_DATE":"2021-04-24T14:46:12","ORIGINATOR":"18 SPCS","OBJECT_NAME":"ONEWEB-0135","OBJECT_ID":"2020-100Z","CENTER_NAME":"EARTH","REF_FRAME":"TEME","TIME_SYSTEM":"UTC","MEAN_ELEMENT_THEORY":"SGP4","EPOCH":"2021-04-24T14:00:03.000384","MEAN_MOTION":"13.13030269","ECCENTRICITY":"0.00017620","INCLINATION":"87.8964","RA_OF_ASC_NODE":"4.3508","ARG_OF_PERICENTER":"92.1868","MEAN_ANOMALY":"93.1649","EPHEMERIS_TYPE":"0","CLASSIFICATION_TYPE":"U","NORAD_CAT_ID":"47281","ELEMENT_SET_NO":"999","REV_AT_EPOCH":"1819","BSTAR":"0.13605000000000","MEAN_MOTION_DOT":"0.00049645","MEAN_MOTION_DDOT":"0.0000000000000","SEMIMAJOR_AXIS":"7589.596","PERIOD":"109.670","APOAPSIS":"1212.799","PERIAPSIS":"1210.124","OBJECT_TYPE":"PAYLOAD","RCS_SIZE":"LARGE","COUNTRY_CODE":"UK","LAUNCH_DATE":"2020-12-18","SITE":"VOSTO","DECAY_DATE":null,"FILE":"3024207","GP_ID":"176038307","TLE_LINE0":"0 ONEWEB-0135","TLE_LINE1":"1 47281U 20100Z   21114.58336806  .00049645  00000-0  13605+0 0  9995","TLE_LINE2":"2 47281  87.8964   4.3508 0001762  92.1868  93.1649 13.13030269 18195"}]